MOLNIYA 3-40            
1 21196U 91022A   24181.65558086 -.00000889  00000+0  00000+0 0  9996
2 21196  64.8250 251.5290 6520955 264.7277  23.5280  2.03016910244773
SL-6 R/B(2)             
1 21199U 91022D   24183.06449586 -.00000491  00000+0  00000+0 0  9999
2 21199  64.4603 210.2430 6441364 261.6551  25.8479  2.05839394249859
SPACENET 4 (ASC 2)      
1 21227U 91028A   24183.65513869  .00000076  00000+0  00000+0 0  9996
2 21227  13.1427  18.9171 0003434 331.3565  29.7038  0.99566049119256
SPACENET 4 R/B [PAM-D]  
1 21229U 91028C   24184.32773367 -.00000035  00000+0  00000+0 0  9990
2 21229  21.8513 123.5297 6882784 236.9896 352.4540  2.19703783266572
MOLNIYA 1-81            
1 21426U 91043A   24184.24149857  .00000153  00000+0  00000+0 0  9998
2 21426  63.5558 254.2165 6856839 263.1124  21.1312  2.00592472242120
SL-6 R/B(2)             
1 21429U 91043D   24170.51958102  .00000845  00000+0  00000+0 0  9995
2 21429  64.2948 331.2081 7095490 265.8419  17.6883  1.96660130237030
SL-12 R/B(2)            
1 21536U 91046D   24184.48938032 -.00000110  00000+0  00000+0 0  9994
2 21536  13.4384 343.7940 0015883 217.9148 134.1470  1.00934528116582
TDRS 5                  
1 21639U 91054B   24184.38541373 -.00000309  00000+0  00000+0 0  9994
2 21639  14.1602 358.9980 0003736 216.9526 141.3027  1.00263365120545
IUS R/B(2)              
1 21641U 91054D   24183.64652345  .00000014  00000+0  00000+0 0  9999
2 21641  14.5384 338.8978 0033444 330.7034  23.3293  1.00242709 40185
COSMOS 2155             
1 21702U 91064A   24184.18459816  .00000012  00000+0  00000+0 0  9994
2 21702  13.7174 344.4760 0001431 180.5563 189.9518  1.00223433120172
SL-12 R/B(2)            
1 21703U 91064B   24184.48005554 -.00000120  00000+0  00000+0 0  9995
2 21703  13.9005 345.1341 0002574  90.8907 281.7997  0.99884221113017
MOLNIYA 3-41            
1 21706U 91065A   24183.68219988 -.00001513  00000+0  00000+0 0  9995
2 21706  63.8588  73.5910 7257613 251.1344  22.9029  2.04360313242095
SL-12 R/B(2)            
1 21762U 91074D   24184.08439698  .00000079  00000+0  00000+0 0  9999
2 21762  13.9787 346.5112 0004314 158.1478  29.8507  0.99702395112541
INTELSAT 601 (IS-601)   
1 21765U 91075A   24184.29186110 -.00000051  00000+0  00000+0 0  9995
2 21765  12.6768  21.9145 0001820  82.4728 108.7860  0.99594814119254
COSMOS 2172             
1 21789U 91079A   24184.55042977  .00000097  00000+0  00000+0 0  9995
2 21789  13.8052 345.5845 0002482  73.9661 107.5335  1.00166684 40190
ATLAS 2 CENTAUR R/B     
1 21804U 91083B   24184.54266257 -.00000001  00000+0  48973-2 0  9996
2 21804  16.6157 118.7088 7355198 268.6447  14.6009  1.91162388227551
RADUGA 28               
1 21821U 91087A   24184.61612203 -.00000372  00000+0  00000+0 0  9990
2 21821  13.8993 346.2823 0008041 151.5044 113.7583  1.00325662119150
IABS R/B                
1 21877U 92006C   24184.25965423 -.00000119  00000+0  00000+0 0  9997
2 21877   8.4863 326.6274 0645097  83.9395 283.4341  1.10786314 19954
METEOSAT-5 AKM          
1 21904U 91015E   24183.54869074  .00000006  00000+0  00000+0 0  9997
2 21904  12.8933 343.1009 0156148 216.6417 142.2829  1.00127994109209
GORIZONT 25             
1 21922U 92017A   24184.48344480  .00000003  00000+0  00000+0 0  9990
2 21922  14.0104 347.7663 0028100 101.8494  75.8964  0.99841985117801
SL-12 R/B(2)            
1 21925U 92017D   24184.62865528  .00000000  00000+0  00000+0 0  9997
2 21925  13.6085 345.8876 0021375  60.7998 261.6013  1.01084245118084
TELECOM 2B              
1 21939U 92021A   24184.22341001 -.00000062  00000+0  00000+0 0  9997
2 21939  14.2828   8.9703 0020774  89.5582  91.0880  0.99517357110278
PALAPA B4               
1 21964U 92027A   24183.79979991 -.00000120  00000+0  00000+0 0  9992
2 21964  12.5180  22.2958 0003972  65.2247 290.4069  0.99952257 40031
DELTA 2 R/B(2)          
1 21966U 92027C   24184.17903616 -.00000123  00000+0  00000+0 0  9991
2 21966  22.0554 229.8434 6438734 168.3708 220.1444  2.05329941241081
INSAT-2A                
1 22027U 92041A   24184.18407602 -.00000015  00000+0  00000+0 0  9991
2 22027  14.6480 357.2959 0005988 246.1238 108.3458  1.00211365116886
GORIZONT 26             
1 22041U 92043A   24184.51919720  .00000010  00000+0  00000+0 0  9999
2 22041  14.2440 349.8756 0032212 250.1565 119.0188  0.99240817116389
OPTUS B1 R/B(STAR 63F)  
1 22089U 92054C   24184.11032567  .00000096  00000+0  61356-3 0  9993
2 22089  22.9891 108.9988 7239421 243.9173  27.6376  2.23738755256910
DELTA 2 R/B(2)          
1 22098U 92057C   24184.01129179 -.00000147  00000+0  00000+0 0  9994
2 22098  19.7168 123.7303 6768939 157.9694 346.4539  2.17553153252996
COSMOS 2209             
1 22112U 92059A   24184.51893615 -.00000105  00000+0  00000+0 0  9995
2 22112  14.0691 347.9460 0006170 325.0757  44.7658  1.00384334116454
SL-12 R/B(2)            
1 22115U 92059D   24184.36021689 -.00000303  00000+0  00000+0 0  9995
2 22115  14.2771 348.7439 0008193 315.5488  57.8745  0.99797201115151
HELLAS-SAT 1 (DFS 3)    
1 22175U 92066A   24184.45746192 -.00000283  00000+0  00000+0 0  9999
2 22175  13.8618  12.2472 0004330 120.9568 254.1465  0.99731103113426
DELTA 2 R/B(2)          
1 22177U 92066C   24184.47945848 -.00000120  00000+0  00000+0 0  9992
2 22177  19.6085 312.5448 6858164 199.9040  77.4798  2.18733391 34069
SL-6 R/B(2)             
1 22181U 92067D   24184.19379846  .00000474  00000+0  00000+0 0  9997
2 22181  64.1603 228.6125 6717526 260.9746  23.4717  2.00806541229092
SL-6 R/B(2)             
1 22192U 92069D   24184.49270563 -.00000677  00000+0  00000+0 0  9996
2 22192  67.9195 146.7000 6726856  14.5358 146.4382  2.02816271229841
GALAXY 7 (G-7)          
1 22205U 92072A   24184.63382576 -.00000360  00000+0  00000+0 0  9998
2 22205  14.2637   8.5504 0007880  60.5838 217.7036  0.99708161109750
EKRAN 20                
1 22210U 92074A   24184.48370587 -.00000102  00000+0  00000+0 0  9992
2 22210  14.1130 349.5485 0006662 162.6169  15.0746  1.00327529 40206
SL-12 R/B(2)            
1 22213U 92074D   24184.54808017  .00000026  00000+0  00000+0 0  9990
2 22213  13.7333 348.1355 0024229 131.7523  34.1710  1.01143045118546
SL-6 R/B(2)             
1 22241U 92081D   24184.04462999 -.00000859  00000+0  00000+0 0  9994
2 22241  68.7134  60.1697 6308979  37.3205 353.1984  2.03447380234770
GORIZONT 27             
1 22245U 92082A   24184.15232419  .00000096  00000+0  00000+0 0  9995
2 22245  14.1494 349.2864 0010411  26.8034 164.9303  1.00178443119955
HIMAWARI-3 AKM          
1 22266U 84080E   24184.61008118 -.00000302  00000+0  00000+0 0  9996
2 22266  10.7895 320.9908 0136293  96.6149 183.5008  0.99744856110357
COSMOS 2224             
1 22269U 92088A   24184.18303175 -.00000044  00000+0  00000+0 0  9992
2 22269  13.9396 353.1062 0004807 212.7310 140.3768  1.00249480114912
SL-12 R/B(2)            
1 22272U 92088D   24184.41714748 -.00000268  00000+0  00000+0 0  9992
2 22272  14.0261 353.5450 0012372 141.2407  33.4039  1.00047986 40135
TDRS 6                  
1 22314U 93003B   24184.38854654 -.00000304  00000+0  00000+0 0  9995
2 22314  14.1630   2.3010 0011594 154.9950 217.6811  1.00271090115247
IUS R/B(2)              
1 22316U 93003D   24184.25283664 -.00000118  00000+0  00000+0 0  9993
2 22316  12.2927 348.6271 0071066 109.9033 265.2381  1.00138987120035
COSMOS 2232             
1 22321U 93006A   24184.17965380  .00000790  00000+0  00000+0 0  9990
2 22321  67.2958 224.1677 5827057 138.7731 284.3460  2.00531907230056
RADUGA 29               
1 22557U 93013A   24184.48292267 -.00000031  00000+0  00000+0 0  9999
2 22557  14.2290 350.4386 0007238 148.0315  24.3769  1.00160476114510
ARSENE (AO-24)          
1 22654U 93031B   24184.16749958 -.00000103  00000+0  00000+0 0  9996
2 22654   4.0907  68.3527 2817857 286.9842 296.4223  1.42203620157257
TITAN 34D TRANSTAGE DEB 
1 22668U 88077D   24184.25383053  .00001176  00000+0  23596-2 0  9993
2 22668  27.2373  55.5175 7339524   6.4334 359.4948  2.15237030 39738
TITAN 34D TRANSTAGE DEB 
1 22669U 88077E   24183.92707709  .00000682  00000+0  15649-2 0  9996
2 22669  26.8310  80.1911 7369446 334.0378   2.8734  2.11224166 38970
HGS-4 (GALAXY 4)        
1 22694U 93039A   24183.05261653 -.00000097  00000+0  00000+0 0  9998
2 22694  14.6069   0.5635 0012840  49.3954 321.3846  1.00266863111821
HISPASAT 1B             
1 22723U 93048A   24184.52302619 -.00000135  00000+0  00000+0 0  9995
2 22723  13.1383  18.1514 0006726  32.2552 329.2396  0.99718381112719
INSAT-2B                
1 22724U 93048B   24184.34354851 -.00000292  00000+0  00000+0 0  9995
2 22724  14.2259   7.8960 0016421 190.3986 170.6530  0.99983132113430
IABS R/B                
1 22738U 93046C   24183.02465589 -.00000198  00000+0  00000+0 0  9998
2 22738  13.1233 342.3379 0088341 124.8599 235.9801  1.02140301 19011
SL-6 R/B(2)             
1 22744U 93051D   24182.75766662  .00000211  00000+0  00000+0 0  9991
2 22744  68.7127 351.8479 6339201  94.7622 335.2086  2.05603131230501
UFO 2 (USA 95)          
1 22787U 93056A   24184.18877524  .00000118  00000+0  00000+0 0  9998
2 22787  11.6605   7.2978 0003251  87.0771 283.0024  1.00275327111493
ACTS                    
1 22796U 93058B   24184.51980635 -.00000120  00000+0  00000+0 0  9999
2 22796  14.5974   1.0071 0050555  67.4496 294.1074  1.00273834119740
TOS R/B                 
1 22797U 93058D   24184.46088241  .00000857  00000+0  95303-3 0  9996
2 22797  15.5887 327.8746 7386911 314.4821   4.9567  2.12259055233165
RADUGA 30               
1 22836U 93062A   24184.48501122 -.00000155  00000+0  00000+0 0  9993
2 22836  14.3396 352.4552 0000863 290.8828 251.3934  1.00262314 38837
SL-12 R/B(2)            
1 22839U 93062D   24184.48292267 -.00000030  00000+0  00000+0 0  9995
2 22839  14.2825 352.1971 0011403  88.0582  82.5597  1.00152968111692
GORIZONT 28             
1 22880U 93069A   24184.28617295 -.00000261  00000+0  00000+0 0  9994
2 22880  14.4132 353.2613 0034762 151.8211  37.4717  0.99659786112003
